[
    {
        "Altitude(m)": 610405.2761383109,
        "Argument of Periapsis(deg)": 0.0,
        "Eccentricity": 0.0,
        "Inclination(deg)": 60.0,
        "Latitude(deg)": 52.11114220712009,
        "Longitude(deg)": -62.52262125570718,
        "Mean Anomaly(deg)": -245.4545,
        "RAAN(deg)": 265.0,
        "Satellite Name": "Test1 1173",
        "Satellite Number": 1173,
        "Semi-Major Axis(m)": 6980739.136638005,
        "Time(s)": 0
    },
    {
        "Altitude(m)": 610321.8491237581,
        "Argument of Periapsis(deg)": 0.00010418945913296404,
        "Eccentricity": 0.0,
        "Inclination(deg)": 60.0,
        "Latitude(deg)": 51.745857596283926,
        "Longitude(deg)": -61.753729105747944,
        "Mean Anomaly(deg)": -244.83439385453818,
        "RAAN(deg)": 264.99957995086027,
        "Satellite Name": "Test1 1173",
        "Satellite Number": 1173,
        "Semi-Major Axis(m)": 6980739.136638005,
        "Time(s)": 10
    },
    {
        "Altitude(m)": 610237.0579691309,
        "Argument of Periapsis(deg)": 0.0002083789182659281,
        "Eccentricity": 0.0,
        "Inclination(deg)": 60.0,
        "Latitude(deg)": 51.37505392512579,
        "Longitude(deg)": -60.99788939945582,
        "Mean Anomaly(deg)": -244.21428770907633,
        "RAAN(deg)": 264.99915990172053,
        "Satellite Name": "Test1 1173",
        "Satellite Number": 1173,
        "Semi-Major Axis(m)": 6980739.136638005,
        "Time(s)": 20
    },
    {
        "Altitude(m)": 610150.9528552364,
        "Argument of Periapsis(deg)": 0.00031256837739889213,
        "Eccentricity": 0.0,
        "Inclination(deg)": 60.0,
        "Latitude(deg)": 50.99888977718325,
        "Longitude(deg)": -60.25490901098818,
        "Mean Anomaly(deg)": -243.59418156361454,
        "RAAN(deg)": 264.9987398525808,
        "Satellite Name": "Test1 1173",
        "Satellite Number": 1173,
        "Semi-Major Axis(m)": 6980739.136638005,
        "Time(s)": 30
    },
    {
        "Altitude(m)": 610063.5848253916,
        "Argument of Periapsis(deg)": 0.0004167578365318562,
        "Eccentricity": 0.0,
        "Inclination(deg)": 60.0,
        "Latitude(deg)": 50.61751998210831,
        "Longitude(deg)": -59.524587112750595,
        "Mean Anomaly(deg)": -242.9740754181527,
        "RAAN(deg)": 264.99831980344106,
        "Satellite Name": "Test1 1173",
        "Satellite Number": 1173,
        "Semi-Major Axis(m)": 6980739.136638005,
        "Time(s)": 40
    },
    {
        "Altitude(m)": 609975.0057607928,
        "Argument of Periapsis(deg)": 0.0005209472956648203,
        "Eccentricity": 0.0,
        "Inclination(deg)": 60.0,
        "Latitude(deg)": 50.23109559053394,
        "Longitude(deg)": -58.80671723402179,
        "Mean Anomaly(deg)": -242.3539692726908,
        "RAAN(deg)": 264.99789975430133,
        "Satellite Name": "Test1 1173",
        "Satellite Number": 1173,
        "Semi-Major Axis(m)": 6980739.136638005,
        "Time(s)": 50
    },
    {
        "Altitude(m)": 609885.2683554528,
        "Argument of Periapsis(deg)": 0.0006251367547977843,
        "Eccentricity": 0.0,
        "Inclination(deg)": 60.0,
        "Latitude(deg)": 49.83976386360317,
        "Longitude(deg)": -58.101087735929454,
        "Mean Anomaly(deg)": -241.733863127229,
        "RAAN(deg)": 264.99747970516154,
        "Satellite Name": "Test1 1173",
        "Satellite Number": 1173,
        "Semi-Major Axis(m)": 6980739.136638005,
        "Time(s)": 60
    },
    {
        "Altitude(m)": 609794.4260907252,
        "Argument of Periapsis(deg)": 0.0007293262139307483,
        "Eccentricity": 0.0,
        "Inclination(deg)": 60.0,
        "Latitude(deg)": 49.44366827572876,
        "Longitude(deg)": -57.40748221716779,
        "Mean Anomaly(deg)": -241.11375698176715,
        "RAAN(deg)": 264.99705965602186,
        "Satellite Name": "Test1 1173",
        "Satellite Number": 1173,
        "Semi-Major Axis(m)": 6980739.136638005,
        "Time(s)": 70
    },
    {
        "Altitude(m)": 609702.5332093955,
        "Argument of Periapsis(deg)": 0.0008335156730637124,
        "Eccentricity": 0.0,
        "Inclination(deg)": 60.0,
        "Latitude(deg)": 49.04294852922611,
        "Longitude(deg)": -56.725681365267285,
        "Mean Anomaly(deg)": -240.49365083630533,
        "RAAN(deg)": 264.99663960688207,
        "Satellite Name": "Test1 1173",
        "Satellite Number": 1173,
        "Semi-Major Axis(m)": 6980739.136638005,
        "Time(s)": 80
    },
    {
        "Altitude(m)": 609609.6446894074,
        "Argument of Periapsis(deg)": 0.0009377051321966765,
        "Eccentricity": 0.0,
        "Inclination(deg)": 60.0,
        "Latitude(deg)": 48.637740579538985,
        "Longitude(deg)": -56.05546322994127,
        "Mean Anomaly(deg)": -239.87354469084354,
        "RAAN(deg)": 264.9962195577423,
        "Satellite Name": "Test1 1173",
        "Satellite Number": 1173,
        "Semi-Major Axis(m)": 6980739.136638005,
        "Time(s)": 90
    },
    {
        "Altitude(m)": 609515.8162171699,
        "Argument of Periapsis(deg)": 0.0010418945913296407,
        "Eccentricity": 0.0,
        "Inclination(deg)": 60.0,
        "Latitude(deg)": 48.22817666985639,
        "Longitude(deg)": -55.396603433907636,
        "Mean Anomaly(deg)": -239.2534385453817,
        "RAAN(deg)": 264.99579950860254,
        "Satellite Name": "Test1 1173",
        "Satellite Number": 1173,
        "Semi-Major Axis(m)": 6980739.136638005,
        "Time(s)": 100
    },
    {
        "Altitude(m)": 609421.1041605006,
        "Argument of Periapsis(deg)": 0.0011460840504626045,
        "Eccentricity": 0.0,
        "Inclination(deg)": 60.0,
        "Latitude(deg)": 47.81438537399413,
        "Longitude(deg)": -54.74887683677467,
        "Mean Anomaly(deg)": -238.63333239991985,
        "RAAN(deg)": 264.9953794594628,
        "Satellite Name": "Test1 1173",
        "Satellite Number": 1173,
        "Semi-Major Axis(m)": 6980739.136638005,
        "Time(s)": 110
    },
    {
        "Altitude(m)": 609325.5655412134,
        "Argument of Periapsis(deg)": 0.0012502735095955685,
        "Eccentricity": 0.0,
        "Inclination(deg)": 60.0,
        "Latitude(deg)": 47.3964916464987,
        "Longitude(deg)": -54.11205762910191,
        "Mean Anomaly(deg)": -238.01322625445806,
        "RAAN(deg)": 264.9949594103231,
        "Satellite Name": "Test1 1173",
        "Satellite Number": 1173,
        "Semi-Major Axis(m)": 6980739.136638005,
        "Time(s)": 120
    },
    {
        "Altitude(m)": 609229.2580073347,
        "Argument of Periapsis(deg)": 0.0013544629687285324,
        "Eccentricity": 0.0,
        "Inclination(deg)": 60.0,
        "Latitude(deg)": 46.974616879006355,
        "Longitude(deg)": -53.485919372448784,
        "Mean Anomaly(deg)": -237.39312010899621,
        "RAAN(deg)": 264.99453936118334,
        "Satellite Name": "Test1 1173",
        "Satellite Number": 1173,
        "Semi-Major Axis(m)": 6980739.136638005,
        "Time(s)": 130
    },
    {
        "Altitude(m)": 609132.239804992,
        "Argument of Periapsis(deg)": 0.0014586524278614966,
        "Eccentricity": 0.0,
        "Inclination(deg)": 60.0,
        "Latitude(deg)": 46.54887896196203,
        "Longitude(deg)": -52.87023650125948,
        "Mean Anomaly(deg)": -236.77301396353437,
        "RAAN(deg)": 264.9941193120436,
        "Satellite Name": "Test1 1173",
        "Satellite Number": 1173,
        "Semi-Major Axis(m)": 6980739.136638005,
        "Time(s)": 140
    },
    {
        "Altitude(m)": 609034.5697499755,
        "Argument of Periapsis(deg)": 0.0015628418869944607,
        "Eccentricity": 0.0,
        "Inclination(deg)": 60.0,
        "Latitude(deg)": 46.11939235088281,
        "Longitude(deg)": -52.26478426383181,
        "Mean Anomaly(deg)": -236.15290781807255,
        "RAAN(deg)": 264.9936992629039,
        "Satellite Name": "Test1 1173",
        "Satellite Number": 1173,
        "Semi-Major Axis(m)": 6980739.136638005,
        "Time(s)": 150
    },
    {
        "Altitude(m)": 608936.3071989693,
        "Argument of Periapsis(deg)": 0.0016670313461274247,
        "Eccentricity": 0.0,
        "Inclination(deg)": 60.0,
        "Latitude(deg)": 45.68626813641556,
        "Longitude(deg)": -51.669338618200825,
        "Mean Anomaly(deg)": -235.5328016726107,
        "RAAN(deg)": 264.99327921376414,
        "Satellite Name": "Test1 1173",
        "Satellite Number": 1173,
        "Semi-Major Axis(m)": 6980739.136638005,
        "Time(s)": 160
    },
    {
        "Altitude(m)": 608837.5120205017,
        "Argument of Periapsis(deg)": 0.0017712208052603888,
        "Eccentricity": 0.0,
        "Inclination(deg)": 60.0,
        "Latitude(deg)": 45.24961411750453,
        "Longitude(deg)": -51.08367759872105,
        "Mean Anomaly(deg)": -234.9126955271489,
        "RAAN(deg)": 264.99285916462435,
        "Satellite Name": "Test1 1173",
        "Satellite Number": 1173,
        "Semi-Major Axis(m)": 6980739.136638005,
        "Time(s)": 170
    },
    {
        "Altitude(m)": 608738.2445655741,
        "Argument of Periapsis(deg)": 0.001875410264393353,
        "Eccentricity": 0.0,
        "Inclination(deg)": 60.0,
        "Latitude(deg)": 44.80953487705232,
        "Longitude(deg)": -50.507581130444024,
        "Mean Anomaly(deg)": -234.2925893816871,
        "RAAN(deg)": 264.9924391154846,
        "Satellite Name": "Test1 1173",
        "Satellite Number": 1173,
        "Semi-Major Axis(m)": 6980739.136638005,
        "Time(s)": 180
    },
    {
        "Altitude(m)": 608638.5656380649,
        "Argument of Periapsis(deg)": 0.0019795997235263173,
        "Eccentricity": 0.0,
        "Inclination(deg)": 60.0,
        "Latitude(deg)": 44.36613185951411,
        "Longitude(deg)": -49.940830806915905,
        "Mean Anomaly(deg)": -233.67248323622525,
        "RAAN(deg)": 264.9920190663449,
        "Satellite Name": "Test1 1173",
        "Satellite Number": 1173,
        "Semi-Major Axis(m)": 6980739.136638005,
        "Time(s)": 190
    }
]